0 SL-24 DEB
1 37797U 11044K   13282.81606059  .00007831  00000-0  80294-3 0  5366
2 37797 098.2407 032.4715 0060163 341.9941 130.6006 14.89392949116264
0 SL-24 DEB
1 37797U 11044K   13283.53404612  .00013005  00000-0  13247-2 0  5382
2 37797 098.2407 033.2185 0059959 339.7698 020.1645 14.89387495116373
0 SL-24 DEB
1 37797U 11044K   13287.50904260  .00008682  00000-0  88835-3 0  5388
2 37797 098.2408 037.3578 0059948 326.3394 094.3308 14.89447996116965
0 SL-24 DEB
1 37797U 11044K   13289.12821072  .00012148  00000-0  12388-2 0  5399
2 37797 098.2416 039.0441 0059835 321.0665 136.4462 14.89483944117200
0 SL-24 DEB
1 37797U 11044K   13290.52069297  .00007934  00000-0  80565-3 0  5400
2 37797 098.2400 040.4907 0060129 316.5480 043.1507 14.89503989117417
0 SL-24 DEB
1 37797U 11044K   13291.06776580  .00010694  00000-0  10905-2 0  5407
2 37797 098.2424 041.0644 0059831 314.6762 096.8107 14.89521090117490
0 SL-24 DEB
1 37797U 11044K   13293.15681637  .00009801  00000-0  99918-3 0  5418
2 37797 098.2419 043.2404 0059903 307.7161 139.1782 14.89558303117800
0 SL-24 DEB
1 37797U 11044K   13295.50260449  .00013200  00000-0  13414-2 0  5428
2 37797 098.2412 045.6839 0059917 299.8710 118.6300 14.89596191118151
